ONEWEB-0056             
1 45159U 20008AE  26101.25081276 -.00000193  00000+0 -58954-3 0  9993
2 45159  87.8832  49.5808 0001724  77.3177 282.8143 13.10368904299410
ONEWEB-0057             
1 45160U 20008AF  26101.10569660 -.00000583  00000+0 -17079-2 0  9992
2 45160  87.8831  49.6187 0001648  95.7916 264.3400 13.10369679299569
ONEWEB-0058             
1 45161U 20008AG  26101.24514490  .00000138  00000+0  35820-3 0  9998
2 45161  87.8828  49.5994 0002125  79.3317 280.8050 13.10368705299658
ONEWEB-0059             
1 45162U 20008AH  26101.24168770  .00000317  00000+0  87147-3 0  9993
2 45162  87.8825  49.6003 0002028  85.4451 274.6908 13.10368760299550
ONEWEB-0062             
1 45163U 20008AJ  26101.26740988 -.00000567  00000+0 -16598-2 0  9993
2 45163  87.8836  49.5788 0002245  73.6382 286.4992 13.10373565299424
ONEWEB-0065             
1 45164U 20008AK  26101.14527745  .00000616  00000+0  17271-2 0  9997
2 45164  87.8835  49.6107 0001541  83.9967 276.1336 13.10374966299100
ONEWEB-0066             
1 45424U 20020A   26101.23442358 -.00000313  00000+0 -91945-3 0  9993
2 45424  87.8926  34.3774 0001993  82.4896 277.6459 13.11416983293908
ONEWEB-0067             
1 45425U 20020B   26101.27258992  .00000390  00000+0  10648-2 0  9990
2 45425  87.8932  34.2821 0001709  86.2094 273.9229 13.11418938293967
ONEWEB-0080             
1 45426U 20020C   26101.27187811  .00000416  00000+0  11393-2 0  9999
2 45426  87.8922  34.3627 0002115  72.7182 287.4178 13.11415096293934
ONEWEB-0090             
1 45427U 20020D   26101.30068489 -.00000391  00000+0 -11385-2 0  9998
2 45427  87.8923  34.3623 0001903  77.7154 282.4187 13.11416915293903
ONEWEB-0061             
1 45428U 20020E   26101.10375094  .00000518  00000+0  14267-2 0  9991
2 45428  87.8921  34.3870 0001917  78.5627 281.5716 13.11416522293839
ONEWEB-0081             
1 45429U 20020F   26101.23782437 -.00000178  00000+0 -53814-3 0  9995
2 45429  87.8912  34.3746 0001868  85.5338 274.6003 13.11420109293966
ONEWEB-0069             
1 45430U 20020G   26101.22679700 -.00000486  00000+0 -14081-2 0  9998
2 45430  87.8918  34.3717 0001861  81.9405 278.1934 13.11416956293899
ONEWEB-0031             
1 45431U 20020H   26101.04623228  .00000283  00000+0  76251-3 0  9994
2 45431  87.8911  34.4235 0002015  74.5751 285.5600 13.11414820293859
ONEWEB-0027             
1 45432U 20020J   26101.17829437  .00000025  00000+0  31206-4 0  9995
2 45432  87.9195  19.1544 0001823  66.9440 293.1884 13.17647874297535
ONEWEB-0064             
1 45433U 20020K   26101.19713155  .00000399  00000+0  10898-2 0  9993
2 45433  87.8909  34.3837 0001908  73.5320 286.6018 13.11414515293908
