[{"OBJECT_NAME":"ONEWEB-0056","OBJECT_ID":"2020-008AE","EPOCH":"2026-04-11T06:01:10.222464","MEAN_MOTION":13.10368904,"ECCENTRICITY":0.0001724,"INCLINATION":87.8832,"RA_OF_ASC_NODE":49.5808,"ARG_OF_PERICENTER":77.3177,"MEAN_ANOMALY":282.8143,"EPHEMERIS_TYPE":0,"CLASSIFICATION_TYPE":"U","NORAD_CAT_ID":45159,"ELEMENT_SET_NO":999,"REV_AT_EPOCH":29941,"BSTAR":-0.0005895399999999999,"MEAN_MOTION_DOT":-1.93e-06,"MEAN_MOTION_DDOT":0.0},{"OBJECT_NAME":"ONEWEB-0057","OBJECT_ID":"2020-008AF","EPOCH":"2026-04-11T02:32:12.186240","MEAN_MOTION":13.10369679,"ECCENTRICITY":0.0001648,"INCLINATION":87.8831,"RA_OF_ASC_NODE":49.6187,"ARG_OF_PERICENTER":95.7916,"MEAN_ANOMALY":264.34,"EPHEMERIS_TYPE":0,"CLASSIFICATION_TYPE":"U","NORAD_CAT_ID":45160,"ELEMENT_SET_NO":999,"REV_AT_EPOCH":29956,"BSTAR":-0.0017079,"MEAN_MOTION_DOT":-5.83e-06,"MEAN_MOTION_DDOT":0.0},{"OBJECT_NAME":"ONEWEB-0058","OBJECT_ID":"2020-008AG","EPOCH":"2026-04-11T05:53:00.519360","MEAN_MOTION":13.10368705,"ECCENTRICITY":0.0002125,"INCLINATION":87.8828,"RA_OF_ASC_NODE":49.5994,"ARG_OF_PERICENTER":79.3317,"MEAN_ANOMALY":280.805,"EPHEMERIS_TYPE":0,"CLASSIFICATION_TYPE":"U","NORAD_CAT_ID":45161,"ELEMENT_SET_NO":999,"REV_AT_EPOCH":29965,"BSTAR":0.00035820000000000003,"MEAN_MOTION_DOT":1.38e-06,"MEAN_MOTION_DDOT":0.0},{"OBJECT_NAME":"ONEWEB-0059","OBJECT_ID":"2020-008AH","EPOCH":"2026-04-11T05:48:01.817280","MEAN_MOTION":13.1036876,"ECCENTRICITY":0.0002028,"INCLINATION":87.8825,"RA_OF_ASC_NODE":49.6003,"ARG_OF_PERICENTER":85.4451,"MEAN_ANOMALY":274.6908,"EPHEMERIS_TYPE":0,"CLASSIFICATION_TYPE":"U","NORAD_CAT_ID":45162,"ELEMENT_SET_NO":999,"REV_AT_EPOCH":29955,"BSTAR":0.00087147,"MEAN_MOTION_DOT":3.17e-06,"MEAN_MOTION_DDOT":0.0},{"OBJECT_NAME":"ONEWEB-0062","OBJECT_ID":"2020-008AJ","EPOCH":"2026-04-11T06:25:04.213632","MEAN_MOTION":13.10373565,"ECCENTRICITY":0.0002245,"INCLINATION":87.8836,"RA_OF_ASC_NODE":49.5788,"ARG_OF_PERICENTER":73.6382,"MEAN_ANOMALY":286.4992,"EPHEMERIS_TYPE":0,"CLASSIFICATION_TYPE":"U","NORAD_CAT_ID":45163,"ELEMENT_SET_NO":999,"REV_AT_EPOCH":29942,"BSTAR":-0.0016598,"MEAN_MOTION_DOT":-5.67e-06,"MEAN_MOTION_DDOT":0.0},{"OBJECT_NAME":"ONEWEB-0065","OBJECT_ID":"2020-008AK","EPOCH":"2026-04-11T03:29:11.971680","MEAN_MOTION":13.10374966,"ECCENTRICITY":0.0001541,"INCLINATION":87.8835,"RA_OF_ASC_NODE":49.6107,"ARG_OF_PERICENTER":83.9967,"MEAN_ANOMALY":276.1336,"EPHEMERIS_TYPE":0,"CLASSIFICATION_TYPE":"U","NORAD_CAT_ID":45164,"ELEMENT_SET_NO":999,"REV_AT_EPOCH":29910,"BSTAR":0.0017271,"MEAN_MOTION_DOT":6.16e-06,"MEAN_MOTION_DDOT":0.0},{"OBJECT_NAME":"ONEWEB-0066","OBJECT_ID":"2020-020A","EPOCH":"2026-04-11T05:37:34.197312","MEAN_MOTION":13.11416983,"ECCENTRICITY":0.0001993,"INCLINATION":87.8926,"RA_OF_ASC_NODE":34.3774,"ARG_OF_PERICENTER":82.4896,"MEAN_ANOMALY":277.6459,"EPHEMERIS_TYPE":0,"CLASSIFICATION_TYPE":"U","NORAD_CAT_ID":45424,"ELEMENT_SET_NO":999,"REV_AT_EPOCH":29390,"BSTAR":-0.00091945,"MEAN_MOTION_DOT":-3.13e-06,"MEAN_MOTION_DDOT":0.0},{"OBJECT_NAME":"ONEWEB-0067","OBJECT_ID":"2020-020B","EPOCH":"2026-04-11T06:32:31.769088","MEAN_MOTION":13.11418938,"ECCENTRICITY":0.0001709,"INCLINATION":87.8932,"RA_OF_ASC_NODE":34.2821,"ARG_OF_PERICENTER":86.2094,"MEAN_ANOMALY":273.9229,"EPHEMERIS_TYPE":0,"CLASSIFICATION_TYPE":"U","NORAD_CAT_ID":45425,"ELEMENT_SET_NO":999,"REV_AT_EPOCH":29396,"BSTAR":0.0010648,"MEAN_MOTION_DOT":3.9e-06,"MEAN_MOTION_DDOT":0.0},{"OBJECT_NAME":"ONEWEB-0080","OBJECT_ID":"2020-020C","EPOCH":"2026-04-11T06:31:30.268704","MEAN_MOTION":13.11415096,"ECCENTRICITY":0.0002115,"INCLINATION":87.8922,"RA_OF_ASC_NODE":34.3627,"ARG_OF_PERICENTER":72.7182,"MEAN_ANOMALY":287.4178,"EPHEMERIS_TYPE":0,"CLASSIFICATION_TYPE":"U","NORAD_CAT_ID":45426,"ELEMENT_SET_NO":999,"REV_AT_EPOCH":29393,"BSTAR":0.0011393,"MEAN_MOTION_DOT":4.16e-06,"MEAN_MOTION_DDOT":0.0},{"OBJECT_NAME":"ONEWEB-0090","OBJECT_ID":"2020-020D","EPOCH":"2026-04-11T07:12:59.174496","MEAN_MOTION":13.11416915,"ECCENTRICITY":0.0001903,"INCLINATION":87.8923,"RA_OF_ASC_NODE":34.3623,"ARG_OF_PERICENTER":77.7154,"MEAN_ANOMALY":282.4187,"EPHEMERIS_TYPE":0,"CLASSIFICATION_TYPE":"U","NORAD_CAT_ID":45427,"ELEMENT_SET_NO":999,"REV_AT_EPOCH":29390,"BSTAR":-0.0011385000000000002,"MEAN_MOTION_DOT":-3.91e-06,"MEAN_MOTION_DDOT":0.0},{"OBJECT_NAME":"ONEWEB-0061","OBJECT_ID":"2020-020E","EPOCH":"2026-04-11T02:29:24.081216","MEAN_MOTION":13.11416522,"ECCENTRICITY":0.0001917,"INCLINATION":87.8921,"RA_OF_ASC_NODE":34.387,"ARG_OF_PERICENTER":78.5627,"MEAN_ANOMALY":281.5716,"EPHEMERIS_TYPE":0,"CLASSIFICATION_TYPE":"U","NORAD_CAT_ID":45428,"ELEMENT_SET_NO":999,"REV_AT_EPOCH":29383,"BSTAR":0.0014267,"MEAN_MOTION_DOT":5.18e-06,"MEAN_MOTION_DDOT":0.0},{"OBJECT_NAME":"ONEWEB-0081","OBJECT_ID":"2020-020F","EPOCH":"2026-04-11T05:42:28.025568","MEAN_MOTION":13.11420109,"ECCENTRICITY":0.0001868,"INCLINATION":87.8912,"RA_OF_ASC_NODE":34.3746,"ARG_OF_PERICENTER":85.5338,"MEAN_ANOMALY":274.6003,"EPHEMERIS_TYPE":0,"CLASSIFICATION_TYPE":"U","NORAD_CAT_ID":45429,"ELEMENT_SET_NO":999,"REV_AT_EPOCH":29396,"BSTAR":-0.00053814,"MEAN_MOTION_DOT":-1.78e-06,"MEAN_MOTION_DDOT":0.0},{"OBJECT_NAME":"ONEWEB-0069","OBJECT_ID":"2020-020G","EPOCH":"2026-04-11T05:26:35.260800","MEAN_MOTION":13.11416956,"ECCENTRICITY":0.0001861,"INCLINATION":87.8918,"RA_OF_ASC_NODE":34.3717,"ARG_OF_PERICENTER":81.9405,"MEAN_ANOMALY":278.1934,"EPHEMERIS_TYPE":0,"CLASSIFICATION_TYPE":"U","NORAD_CAT_ID":45430,"ELEMENT_SET_NO":999,"REV_AT_EPOCH":29389,"BSTAR":-0.0014081,"MEAN_MOTION_DOT":-4.86e-06,"MEAN_MOTION_DDOT":0.0},{"OBJECT_NAME":"ONEWEB-0031","OBJECT_ID":"2020-020H","EPOCH":"2026-04-11T01:06:34.468992","MEAN_MOTION":13.1141482,"ECCENTRICITY":0.0002015,"INCLINATION":87.8911,"RA_OF_ASC_NODE":34.4235,"ARG_OF_PERICENTER":74.5751,"MEAN_ANOMALY":285.56,"EPHEMERIS_TYPE":0,"CLASSIFICATION_TYPE":"U","NORAD_CAT_ID":45431,"ELEMENT_SET_NO":999,"REV_AT_EPOCH":29385,"BSTAR":0.00076251,"MEAN_MOTION_DOT":2.83e-06,"MEAN_MOTION_DDOT":0.0},{"OBJECT_NAME":"ONEWEB-0027","OBJECT_ID":"2020-020J","EPOCH":"2026-04-11T04:16:44.633568","MEAN_MOTION":13.17647874,"ECCENTRICITY":0.0001823,"INCLINATION":87.9195,"RA_OF_ASC_NODE":19.1544,"ARG_OF_PERICENTER":66.944,"MEAN_ANOMALY":293.1884,"EPHEMERIS_TYPE":0,"CLASSIFICATION_TYPE":"U","NORAD_CAT_ID":45432,"ELEMENT_SET_NO":999,"REV_AT_EPOCH":29753,"BSTAR":3.1206e-05,"MEAN_MOTION_DOT":2.5e-07,"MEAN_MOTION_DDOT":0.0},{"OBJECT_NAME":"ONEWEB-0064","OBJECT_ID":"2020-020K","EPOCH":"2026-04-11T04:43:52.165920","MEAN_MOTION":13.11414515,"ECCENTRICITY":0.0001908,"INCLINATION":87.8909,"RA_OF_ASC_NODE":34.3837,"ARG_OF_PERICENTER":73.532,"MEAN_ANOMALY":286.6018,"EPHEMERIS_TYPE":0,"CLASSIFICATION_TYPE":"U","NORAD_CAT_ID":45433,"ELEMENT_SET_NO":999,"REV_AT_EPOCH":29390,"BSTAR":0.0010898,"MEAN_MOTION_DOT":3.99e-06,"MEAN_MOTION_DDOT":0.0}]